{"fetched_at":"2026-07-15T06:36:02.052Z","source":"https://celestrak.org/NORAD/elements/gp.php?NAME=GHGSAT&FORMAT=JSON","constellation":"ghgsat","records":[{"OBJECT_NAME":"GHGSAT-C1","OBJECT_ID":"2020-061G","EPOCH":"2026-07-14T21:50:07.158048","CLASSIFICATION_TYPE":"U","MEAN_MOTION":15.73430624,"ECCENTRICITY":0.00009864,"INCLINATION":97.2101,"RA_OF_ASC_NODE":281.9853,"ARG_OF_PERICENTER":175.94,"MEAN_ANOMALY":184.1872,"EPHEMERIS_TYPE":0,"NORAD_CAT_ID":46278,"ELEMENT_SET_NO":999,"REV_AT_EPOCH":32783,"BSTAR":0.00020720077,"MEAN_MOTION_DOT":0.00028628,"MEAN_MOTION_DDOT":0},{"OBJECT_NAME":"GHGSAT-C2","OBJECT_ID":"2021-006DA","EPOCH":"2026-07-14T16:06:58.325760","CLASSIFICATION_TYPE":"U","MEAN_MOTION":15.38104155,"ECCENTRICITY":0.00067344,"INCLINATION":97.2133,"RA_OF_ASC_NODE":242.4677,"ARG_OF_PERICENTER":76.9999,"MEAN_ANOMALY":283.1998,"EPHEMERIS_TYPE":0,"NORAD_CAT_ID":47509,"ELEMENT_SET_NO":999,"REV_AT_EPOCH":30407,"BSTAR":0.000099180857,"MEAN_MOTION_DOT":0.00003641,"MEAN_MOTION_DDOT":0},{"OBJECT_NAME":"GHGSAT-C3","OBJECT_ID":"2022-057F","EPOCH":"2026-07-14T22:52:07.241376","CLASSIFICATION_TYPE":"U","MEAN_MOTION":15.34677208,"ECCENTRICITY":0.00063226,"INCLINATION":97.663,"RA_OF_ASC_NODE":342.6605,"ARG_OF_PERICENTER":36.0079,"MEAN_ANOMALY":324.1588,"EPHEMERIS_TYPE":0,"NORAD_CAT_ID":52737,"ELEMENT_SET_NO":999,"REV_AT_EPOCH":22979,"BSTAR":0.00010692232,"MEAN_MOTION_DOT":0.00003509,"MEAN_MOTION_DDOT":0},{"OBJECT_NAME":"GHGSAT-C5","OBJECT_ID":"2022-057N","EPOCH":"2026-07-14T22:14:52.804320","CLASSIFICATION_TYPE":"U","MEAN_MOTION":15.34653543,"ECCENTRICITY":0.00070278,"INCLINATION":97.6716,"RA_OF_ASC_NODE":344.2396,"ARG_OF_PERICENTER":33.099,"MEAN_ANOMALY":327.0691,"EPHEMERIS_TYPE":0,"NORAD_CAT_ID":52744,"ELEMENT_SET_NO":999,"REV_AT_EPOCH":22979,"BSTAR":0.00011073024,"MEAN_MOTION_DOT":0.00003634,"MEAN_MOTION_DDOT":0},{"OBJECT_NAME":"GHGSAT-C4","OBJECT_ID":"2022-057Q","EPOCH":"2026-07-14T21:48:04.175424","CLASSIFICATION_TYPE":"U","MEAN_MOTION":15.34663898,"ECCENTRICITY":0.00061856,"INCLINATION":97.6557,"RA_OF_ASC_NODE":341.4176,"ARG_OF_PERICENTER":20.2866,"MEAN_ANOMALY":339.8621,"EPHEMERIS_TYPE":0,"NORAD_CAT_ID":52746,"ELEMENT_SET_NO":999,"REV_AT_EPOCH":22979,"BSTAR":0.0001111527,"MEAN_MOTION_DOT":0.00003649,"MEAN_MOTION_DDOT":0},{"OBJECT_NAME":"GHGSAT-C8","OBJECT_ID":"2023-054J","EPOCH":"2026-07-14T23:44:54.750912","CLASSIFICATION_TYPE":"U","MEAN_MOTION":15.53767329,"ECCENTRICITY":0.00029572,"INCLINATION":97.2966,"RA_OF_ASC_NODE":105.6989,"ARG_OF_PERICENTER":2.5871,"MEAN_ANOMALY":357.5397,"EPHEMERIS_TYPE":0,"NORAD_CAT_ID":56186,"ELEMENT_SET_NO":999,"REV_AT_EPOCH":18275,"BSTAR":0.00015334725,"MEAN_MOTION_DOT":0.00009732,"MEAN_MOTION_DDOT":0},{"OBJECT_NAME":"GHGSAT-C6","OBJECT_ID":"2023-054AC","EPOCH":"2026-07-14T22:56:15.436608","CLASSIFICATION_TYPE":"U","MEAN_MOTION":15.53743139,"ECCENTRICITY":0.00035085,"INCLINATION":97.3028,"RA_OF_ASC_NODE":106.3677,"ARG_OF_PERICENTER":308.2998,"MEAN_ANOMALY":51.794,"EPHEMERIS_TYPE":0,"NORAD_CAT_ID":56204,"ELEMENT_SET_NO":999,"REV_AT_EPOCH":18276,"BSTAR":0.00015020511,"MEAN_MOTION_DOT":0.00009522,"MEAN_MOTION_DDOT":0},{"OBJECT_NAME":"GHGSAT-C7","OBJECT_ID":"2023-054AH","EPOCH":"2026-07-14T19:47:41.397216","CLASSIFICATION_TYPE":"U","MEAN_MOTION":15.50440278,"ECCENTRICITY":0.0005016,"INCLINATION":97.2976,"RA_OF_ASC_NODE":104.5541,"ARG_OF_PERICENTER":306.0052,"MEAN_ANOMALY":54.0735,"EPHEMERIS_TYPE":0,"NORAD_CAT_ID":56209,"ELEMENT_SET_NO":999,"REV_AT_EPOCH":18267,"BSTAR":0.00012126428,"MEAN_MOTION_DOT":0.00006808,"MEAN_MOTION_DDOT":0},{"OBJECT_NAME":"GHGSAT-C12","OBJECT_ID":"2025-135B","EPOCH":"2026-07-14T21:22:37.089120","CLASSIFICATION_TYPE":"U","MEAN_MOTION":15.20443939,"ECCENTRICITY":0.00064121,"INCLINATION":97.4771,"RA_OF_ASC_NODE":310.4578,"ARG_OF_PERICENTER":81.819,"MEAN_ANOMALY":278.3773,"EPHEMERIS_TYPE":0,"NORAD_CAT_ID":64529,"ELEMENT_SET_NO":999,"REV_AT_EPOCH":5903,"BSTAR":0.000087333841,"MEAN_MOTION_DOT":0.00001836,"MEAN_MOTION_DDOT":0},{"OBJECT_NAME":"GHGSAT-C13","OBJECT_ID":"2025-135W","EPOCH":"2026-07-14T21:05:13.741728","CLASSIFICATION_TYPE":"U","MEAN_MOTION":15.2140092,"ECCENTRICITY":0.00019209,"INCLINATION":97.4804,"RA_OF_ASC_NODE":311.0603,"ARG_OF_PERICENTER":67.8371,"MEAN_ANOMALY":292.3068,"EPHEMERIS_TYPE":0,"NORAD_CAT_ID":64548,"ELEMENT_SET_NO":999,"REV_AT_EPOCH":5906,"BSTAR":0.00014674907,"MEAN_MOTION_DOT":0.00003222,"MEAN_MOTION_DDOT":0}]}
