GHGSAT-C1               
1 46278U 20061G   26195.90980507  .00028628  00000+0  20720-3 0  9996
2 46278  97.2101 281.9853 0000986 175.9400 184.1872 15.73430624327833
GHGSAT-C2               
1 47509U 21006DA  26195.67150840  .00003641  00000+0  99181-4 0  9993
2 47509  97.2133 242.4677 0006734  76.9999 283.1998 15.38104155304070
GHGSAT-C3               
1 52737U 22057F   26195.95286159  .00003509  00000+0  10692-3 0  9995
2 52737  97.6630 342.6605 0006322  36.0079 324.1588 15.34677208229794
GHGSAT-C5               
1 52744U 22057N   26195.92700005  .00003634  00000+0  11073-3 0  9994
2 52744  97.6716 344.2396 0007027  33.0990 327.0691 15.34653543229797
GHGSAT-C4               
1 52746U 22057Q   26195.90838166  .00003649  00000+0  11115-3 0  9997
2 52746  97.6557 341.4176 0006185  20.2866 339.8621 15.34663898229799
GHGSAT-C8               
1 56186U 23054J   26195.98952258  .00009732  00000+0  15335-3 0  9991
2 56186  97.2966 105.6989 0002957   2.5871 357.5397 15.53767329182751
GHGSAT-C6               
1 56204U 23054AC  26195.95573422  .00009522  00000+0  15021-3 0  9990
2 56204  97.3028 106.3677 0003508 308.2998  51.7940 15.53743139182764
GHGSAT-C7               
1 56209U 23054AH  26195.82478469  .00006808  00000+0  12126-3 0  9993
2 56209  97.2976 104.5541 0005016 306.0052  54.0735 15.50440278182676
GHGSAT-C12              
1 64529U 25135B   26195.89070705  .00001836  00000+0  87334-4 0  9997
2 64529  97.4771 310.4578 0006412  81.8190 278.3773 15.20443939 59035
GHGSAT-C13              
1 64548U 25135W   26195.87863127  .00003222  00000+0  14675-3 0  9992
2 64548  97.4804 311.0603 0001920  67.8371 292.3068 15.21400920 59063
